[{"OBJECT_NAME":"STARLINK-3559","OBJECT_ID":"2022-022J","EPOCH":"2026-03-09T01:35:09.731040","MEAN_MOTION":15.08841221,"ECCENTRICITY":0.0001356,"INCLINATION":53.2179,"RA_OF_ASC_NODE":11.9159,"ARG_OF_PERICENTER":89.8062,"MEAN_ANOMALY":270.3085,"EPHEMERIS_TYPE":0,"CLASSIFICATION_TYPE":"U","NORAD_CAT_ID":51860,"ELEMENT_SET_NO":999,"REV_AT_EPOCH":22302,"BSTAR":2.8006584e-5,"MEAN_MOTION_DOT":1.58e-6,"MEAN_MOTION_DDOT":0},{"OBJECT_NAME":"LEMUR-2-LANGER2SPACE","OBJECT_ID":"2025-061H","EPOCH":"2026-03-09T22:29:21.653952","MEAN_MOTION":15.13463796,"ECCENTRICITY":0.00153346,"INCLINATION":97.5541,"RA_OF_ASC_NODE":45.3892,"ARG_OF_PERICENTER":237.418,"MEAN_ANOMALY":122.5571,"EPHEMERIS_TYPE":0,"CLASSIFICATION_TYPE":"U","NORAD_CAT_ID":63358,"ELEMENT_SET_NO":999,"REV_AT_EPOCH":5260,"BSTAR":0.00035148431,"MEAN_MOTION_DOT":6.238e-5,"MEAN_MOTION_DDOT":0}]
